IRIDIUM 36              
1 24967U 97056C   24311.87289203  .00001913  00000+0  63657-3 0  9998
2 24967  86.3938 266.3416 0002484  82.5006 277.6474 14.37200731420285
IRIDIUM 39              
1 25042U 97069D   24312.10048659  .00002936  00000+0  77495-3 0  9993
2 25042  86.3875 306.3635 0016950 335.4428  24.5967 14.48577733417068
IRIDIUM 38              
1 25043U 97069E   24311.90336910  .00001732  00000+0  57006-3 0  9990
2 25043  86.3943 326.7039 0004124  99.1629 261.0036 14.37682058414018
IRIDIUM 42              
1 25077U 97077A   24311.77824774  .00001766  00000+0  60225-3 0  9995
2 25077  86.3954 332.6520 0002812  99.0695 261.0820 14.35951249409274
IRIDIUM 44              
1 25078U 97077B   24311.91413848  .00002007  00000+0  63377-3 0  9998
2 25078  86.3924 315.1072 0003774  67.8818 292.2781 14.39808518411716
IRIDIUM 45              
1 25104U 97082A   24312.07322018  .00032283  00000+0  14972-2 0  9995
2 25104  86.3639 154.7917 0144272  77.0567 284.6738 15.11018527418625
IRIDIUM 24              
1 25105U 97082B   24311.89313877  .00001771  00000+0  53759-3 0  9993
2 25105  86.3951 174.5065 0013532  91.2718 269.0032 14.41642345411188
IRIDIUM 51              
1 25262U 98018A   24311.86168503  .00050757  00000+0  18393-2 0  9990
2 25262  86.3936 164.2565 0123843  14.6386 345.8390 15.21130608413021
